{"type": "FeatureCollection", "features": [ {"type": "Feature", "properties": {"norad_id": 66918, "name": "HULIANWANG DIGUI-108", "group": "last-30-days", "lat": 37.23124518040405, "lon": 124.80941630358394, "alt_km": 877.5579103172386, "timestamp": "2025-12-20T14:38:00.690790+00:00", "meta": {"OBJECT_NAME": "HULIANWANG DIGUI-108", "OBJECT_ID": "2025-285D", "EPOCH": "2025-12-20T05:50:32.419392", "MEAN_MOTION": 14.03601705, "ECCENTRICITY": 0.00066071, "INCLINATION": 50.0046, "RA_OF_ASC_NODE": 86.6637, "ARG_OF_PERICENTER": 305.0306, "MEAN_ANOMALY": 54.9978, "EPHEMERIS_TYPE": 0, "CLASSIFICATION_TYPE": "U", "NORAD_CAT_ID": 66918, "ELEMENT_SET_NO": 999, "REV_AT_EPOCH": 196, "BSTAR": 9.0005765e-05, "MEAN_MOTION_DOT": -9e-08, "MEAN_MOTION_DDOT": 0}, "tle": {"line1": "1 66918U 25285D   25354.24343078 -.00000009  00000+0  90006-4 0  9990", "line2": "2 66918  50.0046  86.6637 0006607 305.0306  54.9978 14.03601705  1964"}}, "geometry": {"type": "Point", "coordinates": [124.80941630358394, 37.23124518040405]}}, {"type": "Feature", "properties": {"norad_id": 66919, "name": "HULIANWANG DIGUI-109", "group": "last-30-days", "lat": 41.190988548924615, "lon": 132.43889532670437, "alt_km": 876.2599996451527, "timestamp": "2025-12-20T14:38:00.690800+00:00", "meta": {"OBJECT_NAME": "HULIANWANG DIGUI-109", "OBJECT_ID": "2025-285E", "EPOCH": "2025-12-20T07:31:05.013408", "MEAN_MOTION": 14.03725518, "ECCENTRICITY": 0.00078723, "INCLINATION": 50.0069, "RA_OF_ASC_NODE": 86.3711, "ARG_OF_PERICENTER": 317.7068, "MEAN_ANOMALY": 42.3228, "EPHEMERIS_TYPE": 0, "CLASSIFICATION_TYPE": "U", "NORAD_CAT_ID": 66919, "ELEMENT_SET_NO": 999, "REV_AT_EPOCH": 197, "BSTAR": -1.0067143e-05, "MEAN_MOTION_DOT": -1.67e-06, "MEAN_MOTION_DDOT": 0}, "tle": {"line1": "1 66919U 25285E   25354.31325247 -.00000167  00000+0 -10067-4 0  9992", "line2": "2 66919  50.0069  86.3711 0007872 317.7068  42.3228 14.03725518  1979"}}, "geometry": {"type": "Point", "coordinates": [132.43889532670437, 41.190988548924615]}}, {"type": "Feature", "properties": {"norad_id": 66920, "name": "HULIANWANG DIGUI-110", "group": "last-30-days", "lat": 43.35051055239155, "lon": 137.5655001788981, "alt_km": 876.2776458466096, "timestamp": "2025-12-20T14:38:00.690810+00:00", "meta": {"OBJECT_NAME": "HULIANWANG DIGUI-110", "OBJECT_ID": "2025-285F", "EPOCH": "2025-12-20T07:29:49.516224", "MEAN_MOTION": 14.03682144, "ECCENTRICITY": 0.00055775, "INCLINATION": 50.0103, "RA_OF_ASC_NODE": 86.3725, "ARG_OF_PERICENTER": 314.825, "MEAN_ANOMALY": 45.22, "EPHEMERIS_TYPE": 0, "CLASSIFICATION_TYPE": "U", "NORAD_CAT_ID": 66920, "ELEMENT_SET_NO": 999, "REV_AT_EPOCH": 197, "BSTAR": 8.6766466e-05, "MEAN_MOTION_DOT": -1.4e-07, "MEAN_MOTION_DDOT": 0}, "tle": {"line1": "1 66920U 25285F   25354.31237866 -.00000014  00000+0  86766-4 0  9992", "line2": "2 66920  50.0103  86.3725 0005577 314.8250  45.2200 14.03682144  1975"}}, "geometry": {"type": "Point", "coordinates": [137.5655001788981, 43.35051055239155]}}, {"type": "Feature", "properties": {"norad_id": 66921, "name": "HULIANWANG DIGUI-111", "group": "last-30-days", "lat": 45.32796132511533, "lon": 143.25215383536695, "alt_km": 876.4599934283424, "timestamp": "2025-12-20T14:38:00.690820+00:00", "meta": {"OBJECT_NAME": "HULIANWANG DIGUI-111", "OBJECT_ID": "2025-285G", "EPOCH": "2025-12-20T07:28:31.490112", "MEAN_MOTION": 14.03631389, "ECCENTRICITY": 0.00066484, "INCLINATION": 50.0119, "RA_OF_ASC_NODE": 86.3707, "ARG_OF_PERICENTER": 318.6137, "MEAN_ANOMALY": 41.4264, "EPHEMERIS_TYPE": 0, "CLASSIFICATION_TYPE": "U", "NORAD_CAT_ID": 66921, "ELEMENT_SET_NO": 999, "REV_AT_EPOCH": 197, "BSTAR": -9.680769e-06, "MEAN_MOTION_DOT": -1.67e-06, "MEAN_MOTION_DDOT": 0}, "tle": {"line1": "1 66921U 25285G   25354.31147558 -.00000167  00000+0 -96808-5 0  9990", "line2": "2 66921  50.0119  86.3707 0006648 318.6137  41.4264 14.03631389  1972"}}, "geometry": {"type": "Point", "coordinates": [143.25215383536695, 45.32796132511533]}}, {"type": "Feature", "properties": {"norad_id": 66922, "name": "HULIANWANG DIGUI-112", "group": "last-30-days", "lat": 47.199760702098956, "lon": 150.153773865711, "alt_km": 875.609333590176, "timestamp": "2025-12-20T14:38:00.690833+00:00", "meta": {"OBJECT_NAME": "HULIANWANG DIGUI-112", "OBJECT_ID": "2025-285H", "EPOCH": "2025-12-20T07:27:04.664160", "MEAN_MOTION": 14.03661367, "ECCENTRICITY": 0.00064739, "INCLINATION": 50.0092, "RA_OF_ASC_NODE": 86.3587, "ARG_OF_PERICENTER": 329.2983, "MEAN_ANOMALY": 30.7542, "EPHEMERIS_TYPE": 0, "CLASSIFICATION_TYPE": "U", "NORAD_CAT_ID": 66922, "ELEMENT_SET_NO": 999, "REV_AT_EPOCH": 197, "BSTAR": 4.546504e-06, "MEAN_MOTION_DOT": -1.44e-06, "MEAN_MOTION_DDOT": 0}, "tle": {"line1": "1 66922U 25285H   25354.31047065 -.00000144  00000+0  45465-5 0  9990", "line2": "2 66922  50.0092  86.3587 0006473 329.2983  30.7542 14.03661367  1971"}}, "geometry": {"type": "Point", "coordinates": [150.153773865711, 47.199760702098956]}}, {"type": "Feature", "properties": {"norad_id": 66923, "name": "HULIANWANG DIGUI-113", "group": "last-30-days", "lat": 48.74555508981377, "lon": 158.2585931929673, "alt_km": 875.7112078465698, "timestamp": "2025-12-20T14:38:00.690844+00:00", "meta": {"OBJECT_NAME": "HULIANWANG DIGUI-113", "OBJECT_ID": "2025-285J", "EPOCH": "2025-12-20T07:25:28.791264", "MEAN_MOTION": 14.03699404, "ECCENTRICITY": 0.00050894, "INCLINATION": 50.009, "RA_OF_ASC_NODE": 86.3542, "ARG_OF_PERICENTER": 323.874, "MEAN_ANOMALY": 36.182, "EPHEMERIS_TYPE": 0, "CLASSIFICATION_TYPE": "U", "NORAD_CAT_ID": 66923, "ELEMENT_SET_NO": 999, "REV_AT_EPOCH": 197, "BSTAR": -1.1448333e-05, "MEAN_MOTION_DOT": -1.7e-06, "MEAN_MOTION_DDOT": 0}, "tle": {"line1": "1 66923U 25285J   25354.30936101 -.00000170  00000+0 -11448-4 0  9991", "line2": "2 66923  50.0090  86.3542 0005089 323.8740  36.1820 14.03699404  1976"}}, "geometry": {"type": "Point", "coordinates": [158.2585931929673, 48.74555508981377]}}, {"type": "Feature", "properties": {"norad_id": 66924, "name": "CZ-8A R/B", "group": "last-30-days", "lat": -48.21769658417646, "lon": 12.699724717034211, "alt_km": 867.2496638607563, "timestamp": "2025-12-20T14:38:00.690854+00:00", "meta": {"OBJECT_NAME": "CZ-8A R/B", "OBJECT_ID": "2025-285K", "EPOCH": "2025-12-20T04:56:24.079200", "MEAN_MOTION": 14.30504473, "ECCENTRICITY": 0.01192723, "INCLINATION": 50.0076, "RA_OF_ASC_NODE": 84.3733, "ARG_OF_PERICENTER": 133.0659, "MEAN_ANOMALY": 228.0316, "EPHEMERIS_TYPE": 0, "CLASSIFICATION_TYPE": "U", "NORAD_CAT_ID": 66924, "ELEMENT_SET_NO": 999, "REV_AT_EPOCH": 199, "BSTAR": 4.5870104e-05, "MEAN_MOTION_DOT": -3.7e-07, "MEAN_MOTION_DDOT": 0}, "tle": {"line1": "1 66924U 25285K   25354.20583425 -.00000037  00000+0  45870-4 0  9995", "line2": "2 66924  50.0076  84.3733 0119272 133.0659 228.0316 14.30504473  1996"}}, "geometry": {"type": "Point", "coordinates": [12.699724717034211, -48.21769658417646]}}, {"type": "Feature", "properties": {"norad_id": 66925, "name": "STARLINK-35945", "group": "last-30-days", "lat": 46.95259470933648, "lon": 137.54308989399593, "alt_km": 332.32161033599095, "timestamp": "2025-12-20T14:38:00.690866+00:00", "meta": {"OBJECT_NAME": "STARLINK-35945", "OBJECT_ID": "2025-286A", "EPOCH": "2025-12-20T06:00:02.999808", "MEAN_MOTION": 15.78027346, "ECCENTRICITY": 8.834e-05, "INCLINATION": 53.1561, "RA_OF_ASC_NODE": 12.7331, "ARG_OF_PERICENTER": 74.6406, "MEAN_ANOMALY": 155.4591, "EPHEMERIS_TYPE": 0, "CLASSIFICATION_TYPE": "U", "NORAD_CAT_ID": 66925, "ELEMENT_SET_NO": 999, "REV_AT_EPOCH": 319, "BSTAR": -0.0089382141, "MEAN_MOTION_DOT": -0.01380248, "MEAN_MOTION_DDOT": 0}, "tle": {"line1": "1 66925U 25286A   25354.25003472 -.01380248  00000+0 -89382-2 0  9992", "line2": "2 66925  53.1561  12.7331 0000883  74.6406 155.4591 15.78027346  3190"}}, "geometry": {"type": "Point", "coordinates": [137.54308989399593, 46.95259470933648]}}, {"type": "Feature", "properties": {"norad_id": 66926, "name": "STARLINK-35942", "group": "last-30-days", "lat": 44.798805716171316, "lon": 142.8053223174779, "alt_km": 332.91179882920824, "timestamp": "2025-12-20T14:38:00.690877+00:00", "meta": {"OBJECT_NAME": "STARLINK-35942", "OBJECT_ID": "2025-286B", "EPOCH": "2025-12-20T06:00:02.999808", "MEAN_MOTION": 15.77938391, "ECCENTRICITY": 9.09e-05, "INCLINATION": 53.1561, "RA_OF_ASC_NODE": 12.7235, "ARG_OF_PERICENTER": 83.4081, "MEAN_ANOMALY": 151.0679, "EPHEMERIS_TYPE": 0, "CLASSIFICATION_TYPE": "U", "NORAD_CAT_ID": 66926, "ELEMENT_SET_NO": 999, "REV_AT_EPOCH": 319, "BSTAR": -0.0091354702, "MEAN_MOTION_DOT": -0.01402281, "MEAN_MOTION_DDOT": 0}, "tle": {"line1": "1 66926U 25286B   25354.25003472 -.01402281  00000+0 -91355-2 0  9998", "line2": "2 66926  53.1561  12.7235 0000909  83.4081 151.0679 15.77938391  3199"}}, "geometry": {"type": "Point", "coordinates": [142.8053223174779, 44.798805716171316]}}, {"type": "Feature", "properties": {"norad_id": 66927, "name": "STARLINK-35943", "group": "last-30-days", "lat": 43.68567216492799, "lon": 145.1841635250238, "alt_km": 333.13669234952886, "timestamp": "2025-12-20T14:38:00.690887+00:00", "meta": {"OBJECT_NAME": "STARLINK-35943", "OBJECT_ID": "2025-286C", "EPOCH": "2025-12-20T06:00:02.999808", "MEAN_MOTION": 15.77915437, "ECCENTRICITY": 0.0001111, "INCLINATION": 53.1563, "RA_OF_ASC_NODE": 12.7197, "ARG_OF_PERICENTER": 85.2017, "MEAN_ANOMALY": 151.3413, "EPHEMERIS_TYPE": 0, "CLASSIFICATION_TYPE": "U", "NORAD_CAT_ID": 66927, "ELEMENT_SET_NO": 999, "REV_AT_EPOCH": 319, "BSTAR": -0.0092218712, "MEAN_MOTION_DOT": -0.01412861, "MEAN_MOTION_DDOT": 0}, "tle": {"line1": "1 66927U 25286C   25354.25003472 -.01412861  00000+0 -92219-2 0  9994", "line2": "2 66927  53.1563  12.7197 0001111  85.2017 151.3413 15.77915437  3199"}}, "geometry": {"type": "Point", "coordinates": [145.1841635250238, 43.68567216492799]}}]}